{"type": "FeatureCollection", "features": [ {"type": "Feature", "properties": {"norad_id": 17070, "name": "POLAR BEAR", "group": "nnss", "lat": -41.97299005000513, "lon": 4.043249544649765, "alt_km": 996.7317553194034, "timestamp": "2025-12-14T14:39:29.639077+00:00", "meta": {"OBJECT_NAME": "POLAR BEAR", "OBJECT_ID": "1986-088A", "EPOCH": "2025-12-14T00:09:50.268384", "MEAN_MOTION": 13.75250991, "ECCENTRICITY": 0.00410453, "INCLINATION": 89.6173, "RA_OF_ASC_NODE": 183.7231, "ARG_OF_PERICENTER": 115.5625, "MEAN_ANOMALY": 357.7053, "EPHEMERIS_TYPE": 0, "CLASSIFICATION_TYPE": "U", "NORAD_CAT_ID": 17070, "ELEMENT_SET_NO": 999, "REV_AT_EPOCH": 95996, "BSTAR": 0.00013509761, "MEAN_MOTION_DOT": 1.42e-06, "MEAN_MOTION_DDOT": 0}, "tle": {"line1": "1 17070U 86088A   25348.00683181  .00000142  00000+0  13510-3 0  9993", "line2": "2 17070  89.6173 183.7231 0041045 115.5625 357.7053 13.75250991959965"}}, "geometry": {"type": "Point", "coordinates": [4.043249544649765, -41.97299005000513]}}, {"type": "Feature", "properties": {"norad_id": 18361, "name": "OSCAR 27", "group": "nnss", "lat": -84.23423850857428, "lon": 83.05418429427993, "alt_km": 1056.4585051453641, "timestamp": "2025-12-14T14:39:29.639088+00:00", "meta": {"OBJECT_NAME": "OSCAR 27", "OBJECT_ID": "1987-080A", "EPOCH": "2025-12-13T23:00:27.366048", "MEAN_MOTION": 13.44906947, "ECCENTRICITY": 0.0103005, "INCLINATION": 90.3743, "RA_OF_ASC_NODE": 79.318, "ARG_OF_PERICENTER": 220.285, "MEAN_ANOMALY": 139.0634, "EPHEMERIS_TYPE": 0, "CLASSIFICATION_TYPE": "U", "NORAD_CAT_ID": 18361, "ELEMENT_SET_NO": 999, "REV_AT_EPOCH": 87573, "BSTAR": 0.00019053386, "MEAN_MOTION_DOT": 1.23e-06, "MEAN_MOTION_DDOT": 0}, "tle": {"line1": "1 18361U 87080A   25347.95865007  .00000123  00000+0  19053-3 0  9999", "line2": "2 18361  90.3743  79.3180 0103005 220.2850 139.0634 13.44906947875736"}}, "geometry": {"type": "Point", "coordinates": [83.05418429427993, -84.23423850857428]}}, {"type": "Feature", "properties": {"norad_id": 18362, "name": "OSCAR 29", "group": "nnss", "lat": -75.33216477805377, "lon": 81.23620863196211, "alt_km": 1042.9263721824218, "timestamp": "2025-12-14T14:39:29.639098+00:00", "meta": {"OBJECT_NAME": "OSCAR 29", "OBJECT_ID": "1987-080B", "EPOCH": "2025-12-13T23:49:54.044832", "MEAN_MOTION": 13.44448606, "ECCENTRICITY": 0.01039871, "INCLINATION": 90.3753, "RA_OF_ASC_NODE": 79.7782, "ARG_OF_PERICENTER": 243.5261, "MEAN_ANOMALY": 292.0994, "EPHEMERIS_TYPE": 0, "CLASSIFICATION_TYPE": "U", "NORAD_CAT_ID": 18362, "ELEMENT_SET_NO": 999, "REV_AT_EPOCH": 87526, "BSTAR": 0.00016704369, "MEAN_MOTION_DOT": 1.08e-06, "MEAN_MOTION_DDOT": 0}, "tle": {"line1": "1 18362U 87080B   25347.99298663  .00000108  00000+0  16704-3 0  9995", "line2": "2 18362  90.3753  79.7782 0103987 243.5261 292.0994 13.44448606875263"}}, "geometry": {"type": "Point", "coordinates": [81.23620863196211, -75.33216477805377]}}, {"type": "Feature", "properties": {"norad_id": 19070, "name": "OSCAR 23", "group": "nnss", "lat": -51.31961531545009, "lon": 16.852437100063902, "alt_km": 1259.9893315497875, "timestamp": "2025-12-14T14:39:29.639108+00:00", "meta": {"OBJECT_NAME": "OSCAR 23", "OBJECT_ID": "1988-033A", "EPOCH": "2025-12-13T19:54:10.129824", "MEAN_MOTION": 13.27787267, "ECCENTRICITY": 0.01896107, "INCLINATION": 90.3213, "RA_OF_ASC_NODE": 16.4265, "ARG_OF_PERICENTER": 176.8956, "MEAN_ANOMALY": 356.9753, "EPHEMERIS_TYPE": 0, "CLASSIFICATION_TYPE": "U", "NORAD_CAT_ID": 19070, "ELEMENT_SET_NO": 999, "REV_AT_EPOCH": 82267, "BSTAR": 0.00017841582, "MEAN_MOTION_DOT": 9.7e-07, "MEAN_MOTION_DDOT": 0}, "tle": {"line1": "1 19070U 88033A   25347.82928391  .00000097  00000+0  17842-3 0  9992", "line2": "2 19070  90.3213  16.4265 0189610 176.8956 356.9753 13.27787267822671"}}, "geometry": {"type": "Point", "coordinates": [16.852437100063902, -51.31961531545009]}}, {"type": "Feature", "properties": {"norad_id": 19071, "name": "OSCAR 32", "group": "nnss", "lat": 56.46185578789529, "lon": 16.097262942766243, "alt_km": 1183.565640485649, "timestamp": "2025-12-14T14:39:29.639118+00:00", "meta": {"OBJECT_NAME": "OSCAR 32", "OBJECT_ID": "1988-033B", "EPOCH": "2025-12-14T00:13:01.183872", "MEAN_MOTION": 13.27954143, "ECCENTRICITY": 0.01884669, "INCLINATION": 90.3217, "RA_OF_ASC_NODE": 16.5641, "ARG_OF_PERICENTER": 163.2675, "MEAN_ANOMALY": 260.4256, "EPHEMERIS_TYPE": 0, "CLASSIFICATION_TYPE": "U", "NORAD_CAT_ID": 19071, "ELEMENT_SET_NO": 999, "REV_AT_EPOCH": 82282, "BSTAR": 0.00018737662, "MEAN_MOTION_DOT": 1.02e-06, "MEAN_MOTION_DDOT": 0}, "tle": {"line1": "1 19071U 88033B   25348.00904148  .00000102  00000+0  18738-3 0  9990", "line2": "2 19071  90.3217  16.5641 0188466 163.2675 260.4256 13.27954143822824"}}, "geometry": {"type": "Point", "coordinates": [16.097262942766243, 56.46185578789529]}}, {"type": "Feature", "properties": {"norad_id": 19223, "name": "NOVA 2", "group": "nnss", "lat": -42.00541248321744, "lon": -101.71822302643305, "alt_km": 1200.043030588583, "timestamp": "2025-12-14T14:39:29.639129+00:00", "meta": {"OBJECT_NAME": "NOVA 2", "OBJECT_ID": "1988-052A", "EPOCH": "2025-12-13T23:53:41.942976", "MEAN_MOTION": 13.22935962, "ECCENTRICITY": 0.00304858, "INCLINATION": 89.9872, "RA_OF_ASC_NODE": 78.271, "ARG_OF_PERICENTER": 13.4888, "MEAN_ANOMALY": 160.6735, "EPHEMERIS_TYPE": 0, "CLASSIFICATION_TYPE": "U", "NORAD_CAT_ID": 19223, "ELEMENT_SET_NO": 999, "REV_AT_EPOCH": 80964, "BSTAR": 0.00012856072, "MEAN_MOTION_DOT": 6.3e-07, "MEAN_MOTION_DDOT": 0}, "tle": {"line1": "1 19223U 88052A   25347.99562434  .00000063  00000+0  12856-3 0  9996", "line2": "2 19223  89.9872  78.2710 0030485  13.4888 160.6735 13.22935962809646"}}, "geometry": {"type": "Point", "coordinates": [-101.71822302643305, -42.00541248321744]}}, {"type": "Feature", "properties": {"norad_id": 19419, "name": "OSCAR 25", "group": "nnss", "lat": 70.48519966228868, "lon": 20.15277376742402, "alt_km": 1162.365648286731, "timestamp": "2025-12-14T14:39:29.639139+00:00", "meta": {"OBJECT_NAME": "OSCAR 25", "OBJECT_ID": "1988-074A", "EPOCH": "2025-12-14T00:18:39.960864", "MEAN_MOTION": 13.42623499, "ECCENTRICITY": 0.0094498, "INCLINATION": 90.0346, "RA_OF_ASC_NODE": 20.2484, "ARG_OF_PERICENTER": 242.1466, "MEAN_ANOMALY": 180.8505, "EPHEMERIS_TYPE": 0, "CLASSIFICATION_TYPE": "U", "NORAD_CAT_ID": 19419, "ELEMENT_SET_NO": 999, "REV_AT_EPOCH": 82657, "BSTAR": 0.00019235287, "MEAN_MOTION_DOT": 1.2e-06, "MEAN_MOTION_DDOT": 0}, "tle": {"line1": "1 19419U 88074A   25348.01296251  .00000120  00000+0  19235-3 0  9994", "line2": "2 19419  90.0346  20.2484 0094498 242.1466 180.8505 13.42623499826575"}}, "geometry": {"type": "Point", "coordinates": [20.15277376742402, 70.48519966228868]}}, {"type": "Feature", "properties": {"norad_id": 19420, "name": "OSCAR 31", "group": "nnss", "lat": -44.81736408708939, "lon": 20.636887346572305, "alt_km": 1094.5722639955602, "timestamp": "2025-12-14T14:39:29.639148+00:00", "meta": {"OBJECT_NAME": "OSCAR 31", "OBJECT_ID": "1988-074B", "EPOCH": "2025-12-13T20:04:48.332928", "MEAN_MOTION": 13.42584726, "ECCENTRICITY": 0.00928134, "INCLINATION": 90.0363, "RA_OF_ASC_NODE": 20.598, "ARG_OF_PERICENTER": 236.783, "MEAN_ANOMALY": 298.2383, "EPHEMERIS_TYPE": 0, "CLASSIFICATION_TYPE": "U", "NORAD_CAT_ID": 19420, "ELEMENT_SET_NO": 999, "REV_AT_EPOCH": 82665, "BSTAR": 0.00016370877, "MEAN_MOTION_DOT": 1.03e-06, "MEAN_MOTION_DDOT": 0}, "tle": {"line1": "1 19420U 88074B   25347.83667052  .00000103  00000+0  16371-3 0  9995", "line2": "2 19420  90.0363  20.5980 0092813 236.7830 298.2383 13.42584726826659"}}, "geometry": {"type": "Point", "coordinates": [20.636887346572305, -44.81736408708939]}}]}